satname,norad_id,inclination_deg,eccentricity,mean_motion_rev_per_day,perigee_km,apogee_km,l1,l2
STARLINK-1522,46027,53.0545,0.0001866,15.06393209,545.9400975286726,548.5246453780983,1 46027U 20055A   26038.83962963  .00000228  00000+0  34246-4 0  9990,2 46027  53.0545 260.6115 0001866 115.5378 244.5804 15.06393209304388
STARLINK-1523,46028,53.0555,0.0001694,15.06404369,546.0250158374974,548.3713193922858,1 46028U 20055B   26038.85436952  .00001304  00000+0  10639-3 0  9992,2 46028  53.0555 260.5631 0001694  69.2098 290.9072 15.06404369304400
STARLINK-1526,46029,53.0547,0.0001652,15.06386524,546.108785840368,548.3969346501935,1 46029U 20055C   26038.84701103 -.00000256  00000+0  17006-5 0  9998,2 46029  53.0547 260.5866 0001652  86.0061 274.1117 15.06386524304397
STARLINK-1555,46032,53.0561,0.0001615,15.06407326,546.0706647284687,548.3075450603501,1 46032U 20055F   26038.89859833  .00000763  00000+0  70077-4 0  9999,2 46032  53.0561 260.3458 0001615 122.6665 237.4480 15.06407326304409
STARLINK-1556,46033,53.054,0.0001635,15.06393106,546.1003891920946,548.3649850797874,1 46033U 20055G   26038.88018440  .00011749  00000+0  80645-3 0  9997,2 46033  53.0540 260.4370 0001635  88.3363 271.7813 15.06393106304373
STARLINK-1557,46034,53.0548,0.0001359,15.06404614,546.2562637816764,548.1385696761436,1 46034U 20055H   26038.88387230  .00003184  00000+0  23251-3 0  9998,2 46034  53.0548 260.4196 0001359  93.3288 266.7856 15.06404614304371
STARLINK-1558,46035,53.0541,0.0001579,15.06400927,546.11520472956,548.3022289069322,1 46035U 20055J   26038.89124789  .00004351  00000+0  31083-3 0  9997,2 46035  53.0541 260.3894 0001579  89.7596 270.3574 15.06400927304409
STARLINK-1560,46036,53.054,0.0001168,15.06406316,546.3833219249782,548.001078826187,1 46036U 20055K   26038.87648139  .00002228  00000+0  16842-3 0  9993,2 46036  53.0540 260.4543 0001168 102.6690 257.4430 15.06406316304400
STARLINK-1567,46038,53.0543,0.0001347,15.06411051,546.2448485334389,548.1105283105007,1 46038U 20055M   26038.88755116  .00003808  00000+0  27429-3 0  9998,2 46038  53.0543 260.4043 0001347  79.1884 280.9256 15.06411051304399
STARLINK-1569,46039,53.0554,0.0001936,15.06408646,545.8443169695865,548.5258016709549,1 46039U 20055N   26038.82856770  .00002946  00000+0  21653-3 0  9996,2 46039  53.0554 260.6696 0001936  99.8744 260.2463 15.06408646304382
STARLINK-1582,46043,53.0554,0.000122,15.06425268,546.2892331638459,547.9789993162076,1 46043U 20055S   26038.90228733 -.00006521  00000+0 -41898-3 0  9990,2 46043  53.0554 260.3383 0001220  86.8867 273.2261 15.06425268304395
STARLINK-1591,46045,53.0551,0.0001513,15.0639576,546.1767457551232,548.2723601610487,1 46045U 20055U   26038.92810306  .00002777  00000+0  20529-3 0  9992,2 46045  53.0551 260.2223 0001513  95.6778 264.4384 15.06395760304380
STARLINK-1524,46047,53.0557,0.0001431,15.06395698,546.2337237146348,548.2157622454752,1 46047U 20055W   26038.81474793  .00000184  00000+0  31241-4 0  9992,2 46047  53.0557 250.7301 0001431  99.9090 260.2060 15.06395698304523
STARLINK-1527,46048,53.0548,0.0001397,15.064071,546.2223293927163,548.1572656999515,1 46048U 20055X   26038.81106168 -.00000871  00000+0 -39556-4 0  9993,2 46048  53.0548 250.7433 0001397 106.8400 253.2743 15.06407100304504
STARLINK-1540,46051,53.0551,0.000132,15.06398968,546.3005744442935,548.1288672986038,1 46051U 20055AA  26038.84423694  .00001381  00000+0  11156-3 0  9996,2 46051  53.0551 250.5996 0001320  89.3826 270.7314 15.06398968304540
STARLINK-1541,46052,53.0535,0.0001326,15.06406922,546.2720446807716,548.1086414921574,1 46052U 20055AB  26038.89583603  .00000162  00000+0  29791-4 0  9990,2 46052  53.0535 250.3681 0001326 102.1938 257.9200 15.06406922304514
STARLINK-1543,46053,53.0544,0.0001585,15.06402874,546.10508320591,548.3004159065185,1 46053U 20055AC  26038.89952599  .00001792  00000+0  13917-3 0  9997,2 46053  53.0544 250.3511 0001585  95.6129 264.5041 15.06402874304544
STARLINK-1548,46054,53.0553,0.0001359,15.06400922,546.2675776575124,548.1498866275097,1 46054U 20055AD  26038.90690659  .00002070  00000+0  15784-3 0  9990,2 46054  53.0553 250.3162 0001359  92.4732 267.6412 15.06400922304549
STARLINK-1554,46055,53.0546,0.000156,15.06393752,546.1503498622606,548.3110645869147,1 46055U 20055AE  26038.95850461 -.00000533  00000+0 -16877-4 0  9994,2 46055  53.0546 250.0857 0001560 102.0066 258.1098 15.06393752304550
STARLINK-1564,46058,53.0544,0.0001286,15.06385764,546.3645841359503,548.145795007109,1 46058U 20055AH  26038.90327242  .00001950  00000+0  14982-3 0  9994,2 46058  53.0544 250.7984 0001286 107.9036 252.2094 15.06385764304538
STARLINK-1570,46059,53.0548,0.0001633,15.06392831,546.1026169703455,548.3644429854367,1 46059U 20055AJ  26038.80001046 -.00000359  00000+0 -51846-5 0  9991,2 46059  53.0548 250.7976 0001633 102.0610 258.0562 15.06392831304485
STARLINK-1572,46060,53.0549,0.0001529,15.06407097,546.1309242720772,548.2486892095794,1 46060U 20055AK  26038.86265894  .00001584  00000+0  12520-3 0  9995,2 46060  53.0549 250.5147 0001529 112.8354 247.2796 15.06407097304507
STARLINK-1573,46061,53.0534,0.0001168,15.06385837,546.44608005192,548.0638516151384,1 46061U 20055AL  26038.85898314 -.00002690  00000+0 -16184-3 0  9995,2 46061  53.0534 250.5754 0001168  92.9092 267.2030 15.06385837304535
STARLINK-1577,46063,53.0546,0.000169,15.06401203,546.0374876358092,548.3782542021809,1 46063U 20055AN  26038.81842716  .00001795  00000+0  13937-3 0  9994,2 46063  53.0546 250.7098 0001690 117.3745 242.7416 15.06401203304521
STARLINK-1583,46064,53.0545,0.0001347,15.06403909,546.2667346052021,548.1324202791657,1 46064U 20055AP  26038.85161108  .00001717  00000+0  13414-3 0  9992,2 46064  53.0545 250.5650 0001347  92.2215 267.8929 15.06403909304538
STARLINK-1525,46066,53.0558,0.0001299,15.06404558,546.2979873969452,548.0971893230007,1 46066U 20055AR  26038.84975782  .00001326  00000+0  10787-3 0  9990,2 46066  53.0558 230.5751 0001299  88.9693 271.1445 15.06404558304804
STARLINK-1536,46070,53.0557,0.0001391,15.06403354,546.2379638758848,548.1645929849437,1 46070U 20055AV  26038.82764091  .00002641  00000+0  19614-3 0  9991,2 46070  53.0557 230.6729 0001391  94.4878 265.6270 15.06403354304812
STARLINK-1542,46073,53.0561,6.91e-05,15.06395283,546.7474723173,547.7045574859594,1 46073U 20055AY  26038.75393723  .00002915  00000+0  21451-3 0  9992,2 46073  53.0561 231.0036 0000691  88.7535 271.3533 15.06395283304798
